{
  "type": "FeatureCollection",
  "features": [
    {
      "type": "Feature",
      "properties": {
        "norad_id": 31978,
        "name": "FENGYUN 1C DEB",
        "group": "fengyun-1c-debris",
        "lat": 78.88974390356599,
        "lon": 16.62283988963922,
        "alt_km": 934.7689169400246,
        "timestamp": "2025-12-19T22:41:52.678381+00:00",
        "meta_object_name": "FENGYUN 1C DEB",
        "meta_object_id": "1999-025CPF",
        "meta_epoch": "2025-12-18T09:15:01.115712",
        "meta_mean_motion": 13.63124115,
        "meta_eccentricity": 0.02630419,
        "meta_inclination": 98.3793,
        "meta_ra_of_asc_node": 146.6417,
        "meta_arg_of_pericenter": 35.0311,
        "meta_mean_anomaly": 326.7827,
        "meta_ephemeris_type": 0,
        "meta_classification_type": "U",
        "meta_norad_cat_id": 31978,
        "meta_element_set_no": 999,
        "meta_rev_at_epoch": 91667,
        "meta_bstar": 0.0010168637,
        "meta_mean_motion_dot": 9.73e-06,
        "meta_mean_motion_ddot": 0,
        "tle_line1": "1 31978U 99025CPF 25352.38542958  .00000973  00000+0  10169-2 0  9991",
        "tle_line2": "2 31978  98.3793 146.6417 0263041  35.0311 326.7827 13.63124115916678"
      },
      "geometry": {
        "type": "Point",
        "coordinates": [
          16.62283988963922,
          78.88974390356599
        ]
      }
    },
    {
      "type": "Feature",
      "properties": {
        "norad_id": 31979,
        "name": "FENGYUN 1C DEB",
        "group": "fengyun-1c-debris",
        "lat": 11.565434891802775,
        "lon": -91.69905089006258,
        "alt_km": 1012.014314065892,
        "timestamp": "2025-12-19T22:41:52.678391+00:00",
        "meta_object_name": "FENGYUN 1C DEB",
        "meta_object_id": "1999-025CPG",
        "meta_epoch": "2025-12-18T02:00:34.037856",
        "meta_mean_motion": 13.6932555,
        "meta_eccentricity": 0.02673615,
        "meta_inclination": 99.377,
        "meta_ra_of_asc_node": 84.5492,
        "meta_arg_of_pericenter": 267.099,
        "meta_mean_anomaly": 89.9533,
        "meta_ephemeris_type": 0,
        "meta_classification_type": "U",
        "meta_norad_cat_id": 31979,
        "meta_element_set_no": 999,
        "meta_rev_at_epoch": 57985,
        "meta_bstar": 0.0027907291,
        "meta_mean_motion_dot": 3.07e-05,
        "meta_mean_motion_ddot": 0,
        "tle_line1": "1 31979U 99025CPG 25352.08372729  .00003070  00000+0  27907-2 0  9995",
        "tle_line2": "2 31979  99.3770  84.5492 0267361 267.0990  89.9533 13.69325550579856"
      },
      "geometry": {
        "type": "Point",
        "coordinates": [
          -91.69905089006258,
          11.565434891802775
        ]
      }
    },
    {
      "type": "Feature",
      "properties": {
        "norad_id": 31980,
        "name": "FENGYUN 1C DEB",
        "group": "fengyun-1c-debris",
        "lat": -34.87252892376265,
        "lon": 82.74292754828231,
        "alt_km": 1341.5988781539081,
        "timestamp": "2025-12-19T22:41:52.678402+00:00",
        "meta_object_name": "FENGYUN 1C DEB",
        "meta_object_id": "1999-025CPH",
        "meta_epoch": "2025-12-16T11:57:41.696928",
        "meta_mean_motion": 13.32153551,
        "meta_eccentricity": 0.04281038,
        "meta_inclination": 97.6145,
        "meta_ra_of_asc_node": 74.8269,
        "meta_arg_of_pericenter": 103.3204,
        "meta_mean_anomaly": 261.6022,
        "meta_ephemeris_type": 0,
        "meta_classification_type": "U",
        "meta_norad_cat_id": 31980,
        "meta_element_set_no": 999,
        "meta_rev_at_epoch": 89720,
        "meta_bstar": 0.00040322723,
        "meta_mean_motion_dot": 3.01e-06,
        "meta_mean_motion_ddot": 0,
        "tle_line1": "1 31980U 99025CPH 25350.49839927  .00000301  00000+0  40323-3 0  9990",
        "tle_line2": "2 31980  97.6145  74.8269 0428103 103.3204 261.6022 13.32153551897206"
      },
      "geometry": {
        "type": "Point",
        "coordinates": [
          82.74292754828231,
          -34.87252892376265
        ]
      }
    },
    {
      "type": "Feature",
      "properties": {
        "norad_id": 31984,
        "name": "FENGYUN 1C DEB",
        "group": "fengyun-1c-debris",
        "lat": 25.814199727590893,
        "lon": -177.74357375947002,
        "alt_km": 786.6792107044903,
        "timestamp": "2025-12-19T22:41:52.678412+00:00",
        "meta_object_name": "FENGYUN 1C DEB",
        "meta_object_id": "1999-025CPM",
        "meta_epoch": "2025-12-18T07:09:32.915232",
        "meta_mean_motion": 14.22968839,
        "meta_eccentricity": 0.00628019,
        "meta_inclination": 98.5578,
        "meta_ra_of_asc_node": 356.4784,
        "meta_arg_of_pericenter": 210.9858,
        "meta_mean_anomaly": 148.7609,
        "meta_ephemeris_type": 0,
        "meta_classification_type": "U",
        "meta_norad_cat_id": 31984,
        "meta_element_set_no": 999,
        "meta_rev_at_epoch": 94452,
        "meta_bstar": 0.00030022048,
        "meta_mean_motion_dot": 6.47e-06,
        "meta_mean_motion_ddot": 0,
        "tle_line1": "1 31984U 99025CPM 25352.29829763  .00000647  00000+0  30022-3 0  9999",
        "tle_line2": "2 31984  98.5578 356.4784 0062801 210.9858 148.7609 14.22968839944527"
      },
      "geometry": {
        "type": "Point",
        "coordinates": [
          -177.74357375947002,
          25.814199727590893
        ]
      }
    },
    {
      "type": "Feature",
      "properties": {
        "norad_id": 31985,
        "name": "FENGYUN 1C DEB",
        "group": "fengyun-1c-debris",
        "lat": -67.84573154842099,
        "lon": -84.51117475325627,
        "alt_km": 775.6536861258955,
        "timestamp": "2025-12-19T22:41:52.678423+00:00",
        "meta_object_name": "FENGYUN 1C DEB",
        "meta_object_id": "1999-025CPN",
        "meta_epoch": "2025-12-13T23:34:50.116800",
        "meta_mean_motion": 14.22977716,
        "meta_eccentricity": 0.01504255,
        "meta_inclination": 98.2196,
        "meta_ra_of_asc_node": 249.1254,
        "meta_arg_of_pericenter": 243.0612,
        "meta_mean_anomaly": 115.5134,
        "meta_ephemeris_type": 0,
        "meta_classification_type": "U",
        "meta_norad_cat_id": 31985,
        "meta_element_set_no": 999,
        "meta_rev_at_epoch": 95628,
        "meta_bstar": 0.00043991826,
        "meta_mean_motion_dot": 1.071e-05,
        "meta_mean_motion_ddot": 0,
        "tle_line1": "1 31985U 99025CPN 25347.98252450  .00001071  00000+0  43992-3 0  9995",
        "tle_line2": "2 31985  98.2196 249.1254 0150425 243.0612 115.5134 14.22977716956281"
      },
      "geometry": {
        "type": "Point",
        "coordinates": [
          -84.51117475325627,
          -67.84573154842099
        ]
      }
    },
    {
      "type": "Feature",
      "properties": {
        "norad_id": 31987,
        "name": "FENGYUN 1C DEB",
        "group": "fengyun-1c-debris",
        "lat": -75.1500816727425,
        "lon": 4.90472617736251,
        "alt_km": 779.9428754262472,
        "timestamp": "2025-12-19T22:41:52.678433+00:00",
        "meta_object_name": "FENGYUN 1C DEB",
        "meta_object_id": "1999-025CPQ",
        "meta_epoch": "2025-12-19T18:38:00.254112",
        "meta_mean_motion": 14.44952877,
        "meta_eccentricity": 0.0051844,
        "meta_inclination": 99.0391,
        "meta_ra_of_asc_node": 327.8273,
        "meta_arg_of_pericenter": 136.556,
        "meta_mean_anomaly": 344.5004,
        "meta_ephemeris_type": 0,
        "meta_classification_type": "U",
        "meta_norad_cat_id": 31987,
        "meta_element_set_no": 999,
        "meta_rev_at_epoch": 96471,
        "meta_bstar": 0.00062983,
        "meta_mean_motion_dot": 2.182e-05,
        "meta_mean_motion_ddot": 0,
        "tle_line1": "1 31987U 99025CPQ 25353.77639183  .00002182  00000+0  62983-3 0  9998",
        "tle_line2": "2 31987  99.0391 327.8273 0051844 136.5560 344.5004 14.44952877964719"
      },
      "geometry": {
        "type": "Point",
        "coordinates": [
          4.90472617736251,
          -75.1500816727425
        ]
      }
    },
    {
      "type": "Feature",
      "properties": {
        "norad_id": 31989,
        "name": "FENGYUN 1C DEB",
        "group": "fengyun-1c-debris",
        "lat": -30.607752041104003,
        "lon": 60.580005974181105,
        "alt_km": 866.840113943249,
        "timestamp": "2025-12-19T22:41:52.678443+00:00",
        "meta_object_name": "FENGYUN 1C DEB",
        "meta_object_id": "1999-025CPS",
        "meta_epoch": "2025-12-15T16:11:35.170368",
        "meta_mean_motion": 13.93591985,
        "meta_eccentricity": 0.0115261,
        "meta_inclination": 99.2132,
        "meta_ra_of_asc_node": 50.8156,
        "meta_arg_of_pericenter": 291.0863,
        "meta_mean_anomaly": 221.027,
        "meta_ephemeris_type": 0,
        "meta_classification_type": "U",
        "meta_norad_cat_id": 31989,
        "meta_element_set_no": 999,
        "meta_rev_at_epoch": 93758,
        "meta_bstar": 0.00049954957,
        "meta_mean_motion_dot": 6.47e-06,
        "meta_mean_motion_ddot": 0,
        "tle_line1": "1 31989U 99025CPS 25349.67471262  .00000647  00000+0  49955-3 0  9994",
        "tle_line2": "2 31989  99.2132  50.8156 0115261 291.0863 221.0270 13.93591985937587"
      },
      "geometry": {
        "type": "Point",
        "coordinates": [
          60.580005974181105,
          -30.607752041104003
        ]
      }
    }
  ]
}